{
  "type": "FeatureCollection",
  "features": [
    {
      "type": "Feature",
      "properties": {
        "norad_id": 30740,
        "name": "FENGYUN 1C DEB",
        "group": "fengyun-1c-debris",
        "lat": NaN,
        "lon": NaN,
        "alt_km": NaN,
        "timestamp": "2025-12-01T03:08:34.207045+00:00",
        "meta": {
          "OBJECT_NAME": "FENGYUN 1C DEB",
          "OBJECT_ID": "1999-025ATA",
          "EPOCH": "2025-11-30T05:36:45.879840",
          "MEAN_MOTION": 14.51491378,
          "ECCENTRICITY": 0.00330482,
          "INCLINATION": 98.6893,
          "RA_OF_ASC_NODE": 78.9109,
          "ARG_OF_PERICENTER": 172.4875,
          "MEAN_ANOMALY": 187.682,
          "EPHEMERIS_TYPE": 0,
          "CLASSIFICATION_TYPE": "U",
          "NORAD_CAT_ID": 30740,
          "ELEMENT_SET_NO": 999,
          "REV_AT_EPOCH": 97466,
          "BSTAR": 0.003162676,
          "MEAN_MOTION_DOT": 0.00012702,
          "MEAN_MOTION_DDOT": 0
        }
      },
      "geometry": {
        "type": "Point",
        "coordinates": [
          NaN,
          NaN
        ]
      }
    },
    {
      "type": "Feature",
      "properties": {
        "norad_id": 30741,
        "name": "FENGYUN 1C DEB",
        "group": "fengyun-1c-debris",
        "lat": NaN,
        "lon": NaN,
        "alt_km": NaN,
        "timestamp": "2025-12-01T03:08:34.207050+00:00",
        "meta": {
          "OBJECT_NAME": "FENGYUN 1C DEB",
          "OBJECT_ID": "1999-025ATB",
          "EPOCH": "2025-11-30T19:15:53.894304",
          "MEAN_MOTION": 14.13223252,
          "ECCENTRICITY": 0.0006681,
          "INCLINATION": 98.68,
          "RA_OF_ASC_NODE": 344.4304,
          "ARG_OF_PERICENTER": 147.1377,
          "MEAN_ANOMALY": 26.5626,
          "EPHEMERIS_TYPE": 0,
          "CLASSIFICATION_TYPE": "U",
          "NORAD_CAT_ID": 30741,
          "ELEMENT_SET_NO": 999,
          "REV_AT_EPOCH": 96650,
          "BSTAR": 0.00016245,
          "MEAN_MOTION_DOT": 2.62e-06,
          "MEAN_MOTION_DDOT": 0
        }
      },
      "geometry": {
        "type": "Point",
        "coordinates": [
          NaN,
          NaN
        ]
      }
    },
    {
      "type": "Feature",
      "properties": {
        "norad_id": 30742,
        "name": "FENGYUN 1C DEB",
        "group": "fengyun-1c-debris",
        "lat": NaN,
        "lon": NaN,
        "alt_km": NaN,
        "timestamp": "2025-12-01T03:08:34.207055+00:00",
        "meta": {
          "OBJECT_NAME": "FENGYUN 1C DEB",
          "OBJECT_ID": "1999-025ATC",
          "EPOCH": "2025-11-30T02:39:25.259328",
          "MEAN_MOTION": 14.10265587,
          "ECCENTRICITY": 0.00704104,
          "INCLINATION": 98.8695,
          "RA_OF_ASC_NODE": 18.7166,
          "ARG_OF_PERICENTER": 262.4109,
          "MEAN_ANOMALY": 123.2019,
          "EPHEMERIS_TYPE": 0,
          "CLASSIFICATION_TYPE": "U",
          "NORAD_CAT_ID": 30742,
          "ELEMENT_SET_NO": 999,
          "REV_AT_EPOCH": 95864,
          "BSTAR": 0.0016867953,
          "MEAN_MOTION_DOT": 3.016e-05,
          "MEAN_MOTION_DDOT": 0
        }
      },
      "geometry": {
        "type": "Point",
        "coordinates": [
          NaN,
          NaN
        ]
      }
    },
    {
      "type": "Feature",
      "properties": {
        "norad_id": 30744,
        "name": "FENGYUN 1C DEB",
        "group": "fengyun-1c-debris",
        "lat": NaN,
        "lon": NaN,
        "alt_km": NaN,
        "timestamp": "2025-12-01T03:08:34.207061+00:00",
        "meta": {
          "OBJECT_NAME": "FENGYUN 1C DEB",
          "OBJECT_ID": "1999-025ATE",
          "EPOCH": "2025-11-29T21:29:22.565184",
          "MEAN_MOTION": 14.87741033,
          "ECCENTRICITY": 0.00096719,
          "INCLINATION": 98.731,
          "RA_OF_ASC_NODE": 118.7002,
          "ARG_OF_PERICENTER": 300.3915,
          "MEAN_ANOMALY": 185.5753,
          "EPHEMERIS_TYPE": 0,
          "CLASSIFICATION_TYPE": "U",
          "NORAD_CAT_ID": 30744,
          "ELEMENT_SET_NO": 999,
          "REV_AT_EPOCH": 97897,
          "BSTAR": 0.0052975061,
          "MEAN_MOTION_DOT": 0.00048614,
          "MEAN_MOTION_DDOT": 0
        }
      },
      "geometry": {
        "type": "Point",
        "coordinates": [
          NaN,
          NaN
        ]
      }
    },
    {
      "type": "Feature",
      "properties": {
        "norad_id": 30746,
        "name": "FENGYUN 1C DEB",
        "group": "fengyun-1c-debris",
        "lat": NaN,
        "lon": NaN,
        "alt_km": NaN,
        "timestamp": "2025-12-01T03:08:34.207066+00:00",
        "meta": {
          "OBJECT_NAME": "FENGYUN 1C DEB",
          "OBJECT_ID": "1999-025ATG",
          "EPOCH": "2025-11-30T18:09:18.868896",
          "MEAN_MOTION": 14.27471665,
          "ECCENTRICITY": 0.0046504,
          "INCLINATION": 99.0577,
          "RA_OF_ASC_NODE": 154.9163,
          "ARG_OF_PERICENTER": 353.0112,
          "MEAN_ANOMALY": 24.7672,
          "EPHEMERIS_TYPE": 0,
          "CLASSIFICATION_TYPE": "U",
          "NORAD_CAT_ID": 30746,
          "ELEMENT_SET_NO": 999,
          "REV_AT_EPOCH": 97275,
          "BSTAR": 0.00045539,
          "MEAN_MOTION_DOT": 1.083e-05,
          "MEAN_MOTION_DDOT": 0
        }
      },
      "geometry": {
        "type": "Point",
        "coordinates": [
          NaN,
          NaN
        ]
      }
    },
    {
      "type": "Feature",
      "properties": {
        "norad_id": 30749,
        "name": "FENGYUN 1C DEB",
        "group": "fengyun-1c-debris",
        "lat": NaN,
        "lon": NaN,
        "alt_km": NaN,
        "timestamp": "2025-12-01T03:08:34.207072+00:00",
        "meta": {
          "OBJECT_NAME": "FENGYUN 1C DEB",
          "OBJECT_ID": "1999-025ATK",
          "EPOCH": "2025-11-30T00:23:36.377664",
          "MEAN_MOTION": 13.99828231,
          "ECCENTRICITY": 0.00547346,
          "INCLINATION": 98.8886,
          "RA_OF_ASC_NODE": 1.1876,
          "ARG_OF_PERICENTER": 268.1629,
          "MEAN_ANOMALY": 91.3267,
          "EPHEMERIS_TYPE": 0,
          "CLASSIFICATION_TYPE": "U",
          "NORAD_CAT_ID": 30749,
          "ELEMENT_SET_NO": 999,
          "REV_AT_EPOCH": 95788,
          "BSTAR": 0.0002865825,
          "MEAN_MOTION_DOT": 3.82e-06,
          "MEAN_MOTION_DDOT": 0
        }
      },
      "geometry": {
        "type": "Point",
        "coordinates": [
          NaN,
          NaN
        ]
      }
    },
    {
      "type": "Feature",
      "properties": {
        "norad_id": 30750,
        "name": "FENGYUN 1C DEB",
        "group": "fengyun-1c-debris",
        "lat": NaN,
        "lon": NaN,
        "alt_km": NaN,
        "timestamp": "2025-12-01T03:08:34.207077+00:00",
        "meta": {
          "OBJECT_NAME": "FENGYUN 1C DEB",
          "OBJECT_ID": "1999-025ATL",
          "EPOCH": "2025-11-30T03:43:47.153568",
          "MEAN_MOTION": 14.28426318,
          "ECCENTRICITY": 0.00417677,
          "INCLINATION": 98.9198,
          "RA_OF_ASC_NODE": 48.4261,
          "ARG_OF_PERICENTER": 135.7407,
          "MEAN_ANOMALY": 253.9735,
          "EPHEMERIS_TYPE": 0,
          "CLASSIFICATION_TYPE": "U",
          "NORAD_CAT_ID": 30750,
          "ELEMENT_SET_NO": 999,
          "REV_AT_EPOCH": 96602,
          "BSTAR": 0.0021169764,
          "MEAN_MOTION_DOT": 5.303e-05,
          "MEAN_MOTION_DDOT": 0
        }
      },
      "geometry": {
        "type": "Point",
        "coordinates": [
          NaN,
          NaN
        ]
      }
    },
    {
      "type": "Feature",
      "properties": {
        "norad_id": 30751,
        "name": "FENGYUN 1C DEB",
        "group": "fengyun-1c-debris",
        "lat": NaN,
        "lon": NaN,
        "alt_km": NaN,
        "timestamp": "2025-12-01T03:08:34.207083+00:00",
        "meta": {
          "OBJECT_NAME": "FENGYUN 1C DEB",
          "OBJECT_ID": "1999-025ATM",
          "EPOCH": "2025-11-30T17:50:25.583424",
          "MEAN_MOTION": 14.1509978,
          "ECCENTRICITY": 0.0053439,
          "INCLINATION": 98.8565,
          "RA_OF_ASC_NODE": 34.0346,
          "ARG_OF_PERICENTER": 130.1129,
          "MEAN_ANOMALY": 350.61,
          "EPHEMERIS_TYPE": 0,
          "CLASSIFICATION_TYPE": "U",
          "NORAD_CAT_ID": 30751,
          "ELEMENT_SET_NO": 999,
          "REV_AT_EPOCH": 96106,
          "BSTAR": 0.0013831,
          "MEAN_MOTION_DOT": 2.676e-05,
          "MEAN_MOTION_DDOT": 0
        }
      },
      "geometry": {
        "type": "Point",
        "coordinates": [
          NaN,
          NaN
        ]
      }
    },
    {
      "type": "Feature",
      "properties": {
        "norad_id": 30753,
        "name": "FENGYUN 1C DEB",
        "group": "fengyun-1c-debris",
        "lat": NaN,
        "lon": NaN,
        "alt_km": NaN,
        "timestamp": "2025-12-01T03:08:34.207088+00:00",
        "meta": {
          "OBJECT_NAME": "FENGYUN 1C DEB",
          "OBJECT_ID": "1999-025ATP",
          "EPOCH": "2025-11-30T09:11:41.212032",
          "MEAN_MOTION": 14.1258284,
          "ECCENTRICITY": 0.0055965,
          "INCLINATION": 98.8083,
          "RA_OF_ASC_NODE": 13.1828,
          "ARG_OF_PERICENTER": 30.8182,
          "MEAN_ANOMALY": 329.6256,
          "EPHEMERIS_TYPE": 0,
          "CLASSIFICATION_TYPE": "U",
          "NORAD_CAT_ID": 30753,
          "ELEMENT_SET_NO": 999,
          "REV_AT_EPOCH": 96177,
          "BSTAR": 0.00086745822,
          "MEAN_MOTION_DOT": 1.586e-05,
          "MEAN_MOTION_DDOT": 0
        }
      },
      "geometry": {
        "type": "Point",
        "coordinates": [
          NaN,
          NaN
        ]
      }
    }
  ]
}